ONEWEB-0458             
1 51648U 22012AC  26059.22681448  .00000297  00000+0  81552-3 0  9999
2 51648  87.8762  57.9532 0001705  85.8460 274.2862 13.10370017195031
ONEWEB-0461             
1 51649U 22012AD  26059.18475364  .00000025  00000+0  32316-4 0  9997
2 51649  87.9144  27.4944 0002036  80.9790 279.1572 13.17649752199539
ONEWEB-0463             
1 51650U 22012AE  26059.16620170 -.00000007  00000+0 -52450-4 0  9997
2 51650  87.9132  27.5316 0002028  82.0019 278.1343 13.17648560199317
ONEWEB-0464             
1 51651U 22012AF  26059.22349256  .00000465  00000+0  12959-2 0  9992
2 51651  87.8755  57.9832 0001715  95.6967 264.4356 13.10371143195054
ONEWEB-0468             
1 51652U 22012AG  26059.23011746 -.00000066  00000+0 -22635-3 0  9996
2 51652  87.8755  57.9763 0001617  96.7794 263.3517 13.10370338195039
ONEWEB-0473             
1 51653U 22012AH  26058.98612335  .00000644  00000+0  18092-2 0  9990
2 51653  87.8753  58.0267 0001729  87.9235 272.2091 13.10372161195004
ONEWEB-0474             
1 51654U 22012AJ  26059.28325611  .00000628  00000+0  17618-2 0  9998
2 51654  87.8769  57.9413 0001685  95.0072 265.1248 13.10374034195032
ONEWEB-0475             
1 51655U 22012AK  26059.17801101  .00000000  00000+0 -32994-4 0  9991
2 51655  87.9130  27.5207 0001206  90.2060 269.9210 13.17648166199338
ONEWEB-0490             
1 54113U 22138A   26059.18584882 -.00000018  00000+0 -77828-4 0  9992
2 54113  87.9247 326.6741 0001694  85.6146 274.5180 13.19725560162456
ONEWEB-0492             
1 54114U 22138B   26059.21112255  .00000064  00000+0  12657-3 0  9995
2 54114  87.9243 326.6779 0001840  85.7258 274.4085 13.19725975162466
ONEWEB-0495             
1 54115U 22138C   26059.11318928  .00000065  00000+0  12885-3 0  9994
2 54115  87.9240 326.6987 0001562 104.7865 255.3441 13.19726911162434
ONEWEB-0497             
1 54116U 22138D   26059.20164186  .00000023  00000+0  24174-4 0  9999
2 54116  87.9242 326.6717 0001689  81.7250 278.4075 13.19725357162432
ONEWEB-0499             
1 54117U 22138E   26059.18505590  .00000051  00000+0  94227-4 0  9992
2 54117  87.9242 326.6851 0001519  79.9066 280.2238 13.19724959162448
ONEWEB-0500             
1 54118U 22138F   26059.18742675 -.00000032  00000+0 -11281-3 0  9999
2 54118  87.9243 326.6739 0001826  79.2777 280.8562 13.19726193162457
ONEWEB-0501             
1 54119U 22138G   26059.21744529  .00000114  00000+0  25263-3 0  9998
2 54119  87.9241 326.6691 0001525  90.6831 269.4477 13.19725875162439
ONEWEB-0502             
1 54120U 22138H   26059.12740523  .00000036  00000+0  57098-4 0  9995
2 54120  87.9249 326.6711 0001501  84.5005 275.6299 13.19725396162441
ONEWEB-0503             
1 54121U 22138J   26059.19216550  .00000024  00000+0  27341-4 0  9996
2 54121  87.9249 326.6621 0001575  72.1142 288.0163 13.19725840162440
