[{"OBJECT_NAME":"ONEWEB-0458","OBJECT_ID":"2022-012AC","EPOCH":"2026-02-28T05:26:36.771072","MEAN_MOTION":13.10370017,"ECCENTRICITY":0.00017056,"INCLINATION":87.8762,"RA_OF_ASC_NODE":57.9532,"ARG_OF_PERICENTER":85.846,"MEAN_ANOMALY":274.2862,"EPHEMERIS_TYPE":0,"CLASSIFICATION_TYPE":"U","NORAD_CAT_ID":51648,"ELEMENT_SET_NO":999,"REV_AT_EPOCH":19503,"BSTAR":0.00081552485,"MEAN_MOTION_DOT":2.97e-6,"MEAN_MOTION_DDOT":0},{"OBJECT_NAME":"ONEWEB-0461","OBJECT_ID":"2022-012AD","EPOCH":"2026-02-28T04:26:02.714496","MEAN_MOTION":13.17649752,"ECCENTRICITY":0.00020366,"INCLINATION":87.9144,"RA_OF_ASC_NODE":27.4944,"ARG_OF_PERICENTER":80.979,"MEAN_ANOMALY":279.1572,"EPHEMERIS_TYPE":0,"CLASSIFICATION_TYPE":"U","NORAD_CAT_ID":51649,"ELEMENT_SET_NO":999,"REV_AT_EPOCH":19953,"BSTAR":3.2316053e-5,"MEAN_MOTION_DOT":2.5e-7,"MEAN_MOTION_DDOT":0},{"OBJECT_NAME":"ONEWEB-0463","OBJECT_ID":"2022-012AE","EPOCH":"2026-02-28T03:59:19.826880","MEAN_MOTION":13.1764856,"ECCENTRICITY":0.00020285,"INCLINATION":87.9132,"RA_OF_ASC_NODE":27.5316,"ARG_OF_PERICENTER":82.0019,"MEAN_ANOMALY":278.1343,"EPHEMERIS_TYPE":0,"CLASSIFICATION_TYPE":"U","NORAD_CAT_ID":51650,"ELEMENT_SET_NO":999,"REV_AT_EPOCH":19931,"BSTAR":-5.2450208e-5,"MEAN_MOTION_DOT":-7.0e-8,"MEAN_MOTION_DDOT":0},{"OBJECT_NAME":"ONEWEB-0464","OBJECT_ID":"2022-012AF","EPOCH":"2026-02-28T05:21:49.757184","MEAN_MOTION":13.10371143,"ECCENTRICITY":0.00017159,"INCLINATION":87.8755,"RA_OF_ASC_NODE":57.9832,"ARG_OF_PERICENTER":95.6967,"MEAN_ANOMALY":264.4356,"EPHEMERIS_TYPE":0,"CLASSIFICATION_TYPE":"U","NORAD_CAT_ID":51651,"ELEMENT_SET_NO":999,"REV_AT_EPOCH":19505,"BSTAR":0.0012959406,"MEAN_MOTION_DOT":4.65e-6,"MEAN_MOTION_DDOT":0},{"OBJECT_NAME":"ONEWEB-0468","OBJECT_ID":"2022-012AG","EPOCH":"2026-02-28T05:31:22.148544","MEAN_MOTION":13.10370338,"ECCENTRICITY":0.00016173,"INCLINATION":87.8755,"RA_OF_ASC_NODE":57.9763,"ARG_OF_PERICENTER":96.7794,"MEAN_ANOMALY":263.3517,"EPHEMERIS_TYPE":0,"CLASSIFICATION_TYPE":"U","NORAD_CAT_ID":51652,"ELEMENT_SET_NO":999,"REV_AT_EPOCH":19503,"BSTAR":-0.00022635054,"MEAN_MOTION_DOT":-6.6e-7,"MEAN_MOTION_DDOT":0},{"OBJECT_NAME":"ONEWEB-0473","OBJECT_ID":"2022-012AH","EPOCH":"2026-02-27T23:40:01.057440","MEAN_MOTION":13.10372161,"ECCENTRICITY":0.00017299,"INCLINATION":87.8753,"RA_OF_ASC_NODE":58.0267,"ARG_OF_PERICENTER":87.9235,"MEAN_ANOMALY":272.2091,"EPHEMERIS_TYPE":0,"CLASSIFICATION_TYPE":"U","NORAD_CAT_ID":51653,"ELEMENT_SET_NO":999,"REV_AT_EPOCH":19500,"BSTAR":0.0018091977,"MEAN_MOTION_DOT":6.44e-6,"MEAN_MOTION_DDOT":0},{"OBJECT_NAME":"ONEWEB-0474","OBJECT_ID":"2022-012AJ","EPOCH":"2026-02-28T06:47:53.327904","MEAN_MOTION":13.10374034,"ECCENTRICITY":0.00016857,"INCLINATION":87.8769,"RA_OF_ASC_NODE":57.9413,"ARG_OF_PERICENTER":95.0072,"MEAN_ANOMALY":265.1248,"EPHEMERIS_TYPE":0,"CLASSIFICATION_TYPE":"U","NORAD_CAT_ID":51654,"ELEMENT_SET_NO":999,"REV_AT_EPOCH":19503,"BSTAR":0.0017617965,"MEAN_MOTION_DOT":6.28e-6,"MEAN_MOTION_DDOT":0},{"OBJECT_NAME":"ONEWEB-0475","OBJECT_ID":"2022-012AK","EPOCH":"2026-02-28T04:16:20.151264","MEAN_MOTION":13.17648166,"ECCENTRICITY":0.00012064,"INCLINATION":87.913,"RA_OF_ASC_NODE":27.5207,"ARG_OF_PERICENTER":90.206,"MEAN_ANOMALY":269.921,"EPHEMERIS_TYPE":0,"CLASSIFICATION_TYPE":"U","NORAD_CAT_ID":51655,"ELEMENT_SET_NO":999,"REV_AT_EPOCH":19933,"BSTAR":-3.2993618e-5,"MEAN_MOTION_DOT":0,"MEAN_MOTION_DDOT":0},{"OBJECT_NAME":"ONEWEB-0490","OBJECT_ID":"2022-138A","EPOCH":"2026-02-28T04:27:37.338048","MEAN_MOTION":13.1972556,"ECCENTRICITY":0.00016946,"INCLINATION":87.9247,"RA_OF_ASC_NODE":326.6741,"ARG_OF_PERICENTER":85.6146,"MEAN_ANOMALY":274.518,"EPHEMERIS_TYPE":0,"CLASSIFICATION_TYPE":"U","NORAD_CAT_ID":54113,"ELEMENT_SET_NO":999,"REV_AT_EPOCH":16245,"BSTAR":-7.7828118e-5,"MEAN_MOTION_DOT":-1.8e-7,"MEAN_MOTION_DDOT":0},{"OBJECT_NAME":"ONEWEB-0492","OBJECT_ID":"2022-138B","EPOCH":"2026-02-28T05:04:00.988320","MEAN_MOTION":13.19725975,"ECCENTRICITY":0.00018406,"INCLINATION":87.9243,"RA_OF_ASC_NODE":326.6779,"ARG_OF_PERICENTER":85.7258,"MEAN_ANOMALY":274.4085,"EPHEMERIS_TYPE":0,"CLASSIFICATION_TYPE":"U","NORAD_CAT_ID":54114,"ELEMENT_SET_NO":999,"REV_AT_EPOCH":16246,"BSTAR":0.00012656525,"MEAN_MOTION_DOT":6.4e-7,"MEAN_MOTION_DDOT":0},{"OBJECT_NAME":"ONEWEB-0495","OBJECT_ID":"2022-138C","EPOCH":"2026-02-28T02:42:59.553792","MEAN_MOTION":13.19726911,"ECCENTRICITY":0.00015629,"INCLINATION":87.924,"RA_OF_ASC_NODE":326.6987,"ARG_OF_PERICENTER":104.7865,"MEAN_ANOMALY":255.3441,"EPHEMERIS_TYPE":0,"CLASSIFICATION_TYPE":"U","NORAD_CAT_ID":54115,"ELEMENT_SET_NO":999,"REV_AT_EPOCH":16243,"BSTAR":0.00012884912,"MEAN_MOTION_DOT":6.5e-7,"MEAN_MOTION_DDOT":0},{"OBJECT_NAME":"ONEWEB-0497","OBJECT_ID":"2022-138D","EPOCH":"2026-02-28T04:50:21.856704","MEAN_MOTION":13.19725357,"ECCENTRICITY":0.00016895,"INCLINATION":87.9242,"RA_OF_ASC_NODE":326.6717,"ARG_OF_PERICENTER":81.725,"MEAN_ANOMALY":278.4075,"EPHEMERIS_TYPE":0,"CLASSIFICATION_TYPE":"U","NORAD_CAT_ID":54116,"ELEMENT_SET_NO":999,"REV_AT_EPOCH":16243,"BSTAR":2.417426e-5,"MEAN_MOTION_DOT":2.3e-7,"MEAN_MOTION_DDOT":0},{"OBJECT_NAME":"ONEWEB-0499","OBJECT_ID":"2022-138E","EPOCH":"2026-02-28T04:26:28.829760","MEAN_MOTION":13.19724959,"ECCENTRICITY":0.00015197,"INCLINATION":87.9242,"RA_OF_ASC_NODE":326.6851,"ARG_OF_PERICENTER":79.9066,"MEAN_ANOMALY":280.2238,"EPHEMERIS_TYPE":0,"CLASSIFICATION_TYPE":"U","NORAD_CAT_ID":54117,"ELEMENT_SET_NO":999,"REV_AT_EPOCH":16244,"BSTAR":9.4226795e-5,"MEAN_MOTION_DOT":5.1e-7,"MEAN_MOTION_DDOT":0},{"OBJECT_NAME":"ONEWEB-0500","OBJECT_ID":"2022-138F","EPOCH":"2026-02-28T04:29:53.671200","MEAN_MOTION":13.19726193,"ECCENTRICITY":0.00018265,"INCLINATION":87.9243,"RA_OF_ASC_NODE":326.6739,"ARG_OF_PERICENTER":79.2777,"MEAN_ANOMALY":280.8562,"EPHEMERIS_TYPE":0,"CLASSIFICATION_TYPE":"U","NORAD_CAT_ID":54118,"ELEMENT_SET_NO":999,"REV_AT_EPOCH":16245,"BSTAR":-0.00011280622,"MEAN_MOTION_DOT":-3.2e-7,"MEAN_MOTION_DDOT":0},{"OBJECT_NAME":"ONEWEB-0501","OBJECT_ID":"2022-138G","EPOCH":"2026-02-28T05:13:07.273056","MEAN_MOTION":13.19725875,"ECCENTRICITY":0.00015257,"INCLINATION":87.9241,"RA_OF_ASC_NODE":326.6691,"ARG_OF_PERICENTER":90.6831,"MEAN_ANOMALY":269.4477,"EPHEMERIS_TYPE":0,"CLASSIFICATION_TYPE":"U","NORAD_CAT_ID":54119,"ELEMENT_SET_NO":999,"REV_AT_EPOCH":16243,"BSTAR":0.00025263281,"MEAN_MOTION_DOT":1.14e-6,"MEAN_MOTION_DDOT":0},{"OBJECT_NAME":"ONEWEB-0502","OBJECT_ID":"2022-138H","EPOCH":"2026-02-28T03:03:27.811872","MEAN_MOTION":13.19725396,"ECCENTRICITY":0.00015014,"INCLINATION":87.9249,"RA_OF_ASC_NODE":326.6711,"ARG_OF_PERICENTER":84.5005,"MEAN_ANOMALY":275.6299,"EPHEMERIS_TYPE":0,"CLASSIFICATION_TYPE":"U","NORAD_CAT_ID":54120,"ELEMENT_SET_NO":999,"REV_AT_EPOCH":16244,"BSTAR":5.7098309e-5,"MEAN_MOTION_DOT":3.6e-7,"MEAN_MOTION_DDOT":0},{"OBJECT_NAME":"ONEWEB-0503","OBJECT_ID":"2022-138J","EPOCH":"2026-02-28T04:36:43.099200","MEAN_MOTION":13.1972584,"ECCENTRICITY":0.00015752,"INCLINATION":87.9249,"RA_OF_ASC_NODE":326.6621,"ARG_OF_PERICENTER":72.1142,"MEAN_ANOMALY":288.0163,"EPHEMERIS_TYPE":0,"CLASSIFICATION_TYPE":"U","NORAD_CAT_ID":54121,"ELEMENT_SET_NO":999,"REV_AT_EPOCH":16244,"BSTAR":2.7340909e-5,"MEAN_MOTION_DOT":2.4e-7,"MEAN_MOTION_DDOT":0}]
